METEOSAT-9 (MSG-2)      
1 28912U 05049B   26087.55372006  .00000111  00000+0  00000+0 0  9992
2 28912   9.1814  54.9434 0000189 125.5968 250.3933  1.00272852  6198
